{
  "type": "FeatureCollection",
  "features": [
    {
      "type": "Feature",
      "properties": {
        "norad_id": 33901,
        "name": "COSMOS 2251 DEB",
        "group": "cosmos-2251-debris",
        "lat": -13.23002832444522,
        "lon": 47.22830456307137,
        "alt_km": 543.9509899005134,
        "timestamp": "2025-12-11T20:41:15.473937+00:00",
        "meta_object_name": "COSMOS 2251 DEB",
        "meta_object_id": "1993-036DE",
        "meta_epoch": "2025-12-11T06:29:32.083872",
        "meta_mean_motion": 15.15676809,
        "meta_eccentricity": 0.0032195,
        "meta_inclination": 73.7736,
        "meta_ra_of_asc_node": 52.4052,
        "meta_arg_of_pericenter": 184.3689,
        "meta_mean_anomaly": 175.7229,
        "meta_ephemeris_type": 0,
        "meta_classification_type": "U",
        "meta_norad_cat_id": 33901,
        "meta_element_set_no": 999,
        "meta_rev_at_epoch": 89491,
        "meta_bstar": 0.0063789718,
        "meta_mean_motion_dot": 0.00125087,
        "meta_mean_motion_ddot": 0,
        "tle_line1": "1 33901U 93036DE  25345.27051023  .00125087  00000+0  63790-2 0  9995",
        "tle_line2": "2 33901  73.7736  52.4052 0032195 184.3689 175.7229 15.15676809894910"
      },
      "geometry": {
        "type": "Point",
        "coordinates": [
          47.22830456307137,
          -13.23002832444522
        ]
      }
    },
    {
      "type": "Feature",
      "properties": {
        "norad_id": 33905,
        "name": "COSMOS 2251 DEB",
        "group": "cosmos-2251-debris",
        "lat": -40.12220408583927,
        "lon": -55.83002180579307,
        "alt_km": 794.1543342519362,
        "timestamp": "2025-12-11T20:41:15.473947+00:00",
        "meta_object_name": "COSMOS 2251 DEB",
        "meta_object_id": "1993-036DJ",
        "meta_epoch": "2025-12-11T09:45:34.507296",
        "meta_mean_motion": 14.35379757,
        "meta_eccentricity": 0.00589878,
        "meta_inclination": 73.8875,
        "meta_ra_of_asc_node": 319.1115,
        "meta_arg_of_pericenter": 208.8941,
        "meta_mean_anomaly": 276.4802,
        "meta_ephemeris_type": 0,
        "meta_classification_type": "U",
        "meta_norad_cat_id": 33905,
        "meta_element_set_no": 999,
        "meta_rev_at_epoch": 87668,
        "meta_bstar": 0.0011659112,
        "meta_mean_motion_dot": 3.387e-05,
        "meta_mean_motion_ddot": 0,
        "tle_line1": "1 33905U 93036DJ  25345.40664939  .00003387  00000+0  11659-2 0  9995",
        "tle_line2": "2 33905  73.8875 319.1115 0058987 208.8941 276.4802 14.35379757876685"
      },
      "geometry": {
        "type": "Point",
        "coordinates": [
          -55.83002180579307,
          -40.12220408583927
        ]
      }
    },
    {
      "type": "Feature",
      "properties": {
        "norad_id": 33906,
        "name": "COSMOS 2251 DEB",
        "group": "cosmos-2251-debris",
        "lat": 43.769326705641625,
        "lon": 127.22212067499402,
        "alt_km": 718.8510692498294,
        "timestamp": "2025-12-11T20:41:15.473957+00:00",
        "meta_object_name": "COSMOS 2251 DEB",
        "meta_object_id": "1993-036DK",
        "meta_epoch": "2025-12-10T22:47:43.500192",
        "meta_mean_motion": 14.57035639,
        "meta_eccentricity": 0.0036626,
        "meta_inclination": 74.031,
        "meta_ra_of_asc_node": 324.8749,
        "meta_arg_of_pericenter": 354.5854,
        "meta_mean_anomaly": 36.316,
        "meta_ephemeris_type": 0,
        "meta_classification_type": "U",
        "meta_norad_cat_id": 33906,
        "meta_element_set_no": 999,
        "meta_rev_at_epoch": 87982,
        "meta_bstar": 0.0031774,
        "meta_mean_motion_dot": 0.0001443,
        "meta_mean_motion_ddot": 0,
        "tle_line1": "1 33906U 93036DK  25344.94980903  .00014430  00000+0  31774-2 0  9997",
        "tle_line2": "2 33906  74.0310 324.8749 0036626 354.5854  36.3160 14.57035639879828"
      },
      "geometry": {
        "type": "Point",
        "coordinates": [
          127.22212067499402,
          43.769326705641625
        ]
      }
    },
    {
      "type": "Feature",
      "properties": {
        "norad_id": 33907,
        "name": "COSMOS 2251 DEB",
        "group": "cosmos-2251-debris",
        "lat": -11.135945885834856,
        "lon": -141.5301713405458,
        "alt_km": 807.6844108624719,
        "timestamp": "2025-12-11T20:41:15.473967+00:00",
        "meta_object_name": "COSMOS 2251 DEB",
        "meta_object_id": "1993-036DL",
        "meta_epoch": "2025-12-10T10:17:45.557664",
        "meta_mean_motion": 14.30470945,
        "meta_eccentricity": 0.01124102,
        "meta_inclination": 74.0703,
        "meta_ra_of_asc_node": 37.8483,
        "meta_arg_of_pericenter": 94.0425,
        "meta_mean_anomaly": 279.6363,
        "meta_ephemeris_type": 0,
        "meta_classification_type": "U",
        "meta_norad_cat_id": 33907,
        "meta_element_set_no": 999,
        "meta_rev_at_epoch": 86547,
        "meta_bstar": 0.0023554643,
        "meta_mean_motion_dot": 6.551e-05,
        "meta_mean_motion_ddot": 0,
        "tle_line1": "1 33907U 93036DL  25344.42899951  .00006551  00000+0  23555-2 0  9996",
        "tle_line2": "2 33907  74.0703  37.8483 0112410  94.0425 279.6363 14.30470945865474"
      },
      "geometry": {
        "type": "Point",
        "coordinates": [
          -141.5301713405458,
          -11.135945885834856
        ]
      }
    },
    {
      "type": "Feature",
      "properties": {
        "norad_id": 33908,
        "name": "COSMOS 2251 DEB",
        "group": "cosmos-2251-debris",
        "lat": -60.214915754444775,
        "lon": 176.8814263737493,
        "alt_km": 802.4797768244644,
        "timestamp": "2025-12-11T20:41:15.473976+00:00",
        "meta_object_name": "COSMOS 2251 DEB",
        "meta_object_id": "1993-036DM",
        "meta_epoch": "2025-12-11T14:10:17.205024",
        "meta_mean_motion": 14.07325228,
        "meta_eccentricity": 0.02231844,
        "meta_inclination": 73.8377,
        "meta_ra_of_asc_node": 207.8051,
        "meta_arg_of_pericenter": 231.5515,
        "meta_mean_anomaly": 126.5408,
        "meta_ephemeris_type": 0,
        "meta_classification_type": "U",
        "meta_norad_cat_id": 33908,
        "meta_element_set_no": 999,
        "meta_rev_at_epoch": 85457,
        "meta_bstar": 0.0027361801,
        "meta_mean_motion_dot": 5.744e-05,
        "meta_mean_motion_ddot": 0,
        "tle_line1": "1 33908U 93036DM  25345.59047691  .00005744  00000+0  27362-2 0  9995",
        "tle_line2": "2 33908  73.8377 207.8051 0223184 231.5515 126.5408 14.07325228854574"
      },
      "geometry": {
        "type": "Point",
        "coordinates": [
          176.8814263737493,
          -60.214915754444775
        ]
      }
    },
    {
      "type": "Feature",
      "properties": {
        "norad_id": 33911,
        "name": "COSMOS 2251 DEB",
        "group": "cosmos-2251-debris",
        "lat": -28.109195765768156,
        "lon": -7.673390717156968,
        "alt_km": 653.7567053596485,
        "timestamp": "2025-12-11T20:41:15.473986+00:00",
        "meta_object_name": "COSMOS 2251 DEB",
        "meta_object_id": "1993-036DQ",
        "meta_epoch": "2025-12-11T11:44:22.098624",
        "meta_mean_motion": 14.74796622,
        "meta_eccentricity": 0.00142629,
        "meta_inclination": 74.0904,
        "meta_ra_of_asc_node": 164.2887,
        "meta_arg_of_pericenter": 105.3404,
        "meta_mean_anomaly": 285.0385,
        "meta_ephemeris_type": 0,
        "meta_classification_type": "U",
        "meta_norad_cat_id": 33911,
        "meta_element_set_no": 999,
        "meta_rev_at_epoch": 88626,
        "meta_bstar": 0.0039923309,
        "meta_mean_motion_dot": 0.00026852,
        "meta_mean_motion_ddot": 0,
        "tle_line1": "1 33911U 93036DQ  25345.48914466  .00026852  00000+0  39923-2 0  9999",
        "tle_line2": "2 33911  74.0904 164.2887 0014262 105.3404 285.0385 14.74796622886260"
      },
      "geometry": {
        "type": "Point",
        "coordinates": [
          -7.673390717156968,
          -28.109195765768156
        ]
      }
    },
    {
      "type": "Feature",
      "properties": {
        "norad_id": 33912,
        "name": "COSMOS 2251 DEB",
        "group": "cosmos-2251-debris",
        "lat": 11.282480988499854,
        "lon": 8.104238171734519,
        "alt_km": 722.2314494887423,
        "timestamp": "2025-12-11T20:41:15.473996+00:00",
        "meta_object_name": "COSMOS 2251 DEB",
        "meta_object_id": "1993-036DR",
        "meta_epoch": "2025-12-11T13:25:58.690848",
        "meta_mean_motion": 14.51883266,
        "meta_eccentricity": 0.0011474,
        "meta_inclination": 74.0335,
        "meta_ra_of_asc_node": 191.9478,
        "meta_arg_of_pericenter": 270.8108,
        "meta_mean_anomaly": 118.1693,
        "meta_ephemeris_type": 0,
        "meta_classification_type": "U",
        "meta_norad_cat_id": 33912,
        "meta_element_set_no": 999,
        "meta_rev_at_epoch": 88416,
        "meta_bstar": 0.0010411215,
        "meta_mean_motion_dot": 4.174e-05,
        "meta_mean_motion_ddot": 0,
        "tle_line1": "1 33912U 93036DR  25345.55970707  .00004174  00000+0  10411-2 0  9992",
        "tle_line2": "2 33912  74.0335 191.9478 0011474 270.8108 118.1693 14.51883266884164"
      },
      "geometry": {
        "type": "Point",
        "coordinates": [
          8.104238171734519,
          11.282480988499854
        ]
      }
    }
  ]
}